{
  "norad_id": 61245,
  "name": "STARLINK-11280 [DTC]",
  "history": [
    {
      "epoch": "2026-03-28T21:17:28.273056",
      "apogee_km": 360.3269059142849,
      "perigee_km": 359.0790579496297,
      "latitude_deg": -36.57086405160151,
      "longitude_deg": 29.664747840026394,
      "semi_major_axis_km": 6737.839981931957,
      "eccentricity": 9.26e-05,
      "inclination_deg": 53.1587,
      "raan_deg": 321.489,
      "arg_perigee_deg": 91.5886,
      "mean_anomaly_deg": 268.5238,
      "mean_motion_rev_day": 15.69718306
    }
  ]
}