{"fetched_at":"2026-03-29T16:36:15Z","count":15609,"tles":[{"name":"STARLINK-11280 [DTC]","line1":"1 61245U 24175C   26087.88713279  .00000018  00000+0  50062-5 0  9991","line2":"2 61245  53.1587 321.4890 0000926  91.5886 268.5238 15.69718306 86385","category":"Starlink"}]}